     2.100          NAVIGATION                              RINEX VERSION / TYPE
fic2rin                                 04/19/2014 00:15:25 PGM / RUN BY / DATE
                                                            END OF HEADER
20 14  4 18 10  0  0.0  .180813483894D-03  .375166564481D-11  .000000000000D+00
     .400000000000D+02 -.138437500000D+02  .531950729312D-08  .291292293091D+01
    -.683590769768D-06  .582363537978D-02  .997819006443D-05  .515381392097D+04
     .468000000000D+06  .447034835815D-07  .355985329704D-01 -.124797224998D-06
     .927382505592D+00  .165187500000D+03  .133207611407D+01 -.826355849609D-08
    -.537165232231D-09  .100000000000D+01  .178800000000D+04  .000000000000D+00
     .240000000000D+01  .000000000000D+00 -.838190317154D-08  .400000000000D+02
     .460806000000D+06  .400000000000D+01
21 14  4 18 10  0  0.0 -.356030184776D-03 -.227373675443D-11  .000000000000D+00
     .610000000000D+02 -.117187500000D+02  .568059376239D-08 -.292326050547D+01
    -.869855284691D-06  .214052257361D-01  .486522912979D-05  .515376327324D+04
     .468000000000D+06  .324100255966D-06 -.956576074536D+00 -.288709998131D-06
     .932017278764D+00  .268500000000D+03 -.203733185807D+01 -.831784647169D-08
     .985755346381D-10  .100000000000D+01  .178800000000D+04  .000000000000D+00
     .240000000000D+01  .000000000000D+00 -.111758708954D-07  .610000000000D+02
     .460806000000D+06  .400000000000D+01
22 14  4 18 10  0  0.0  .227716751397D-03  .284217094304D-11  .000000000000D+00
     .760000000000D+02 -.750000000000D+01  .542236872056D-08  .182020975971D+01
    -.443309545517D-06  .706667825580D-02  .107344239950D-04  .515373054314D+04
     .468000000000D+06 -.137835741043D-06  .906508115816D-01 -.186264514923D-06
     .924196201259D+00  .156000000000D+03 -.206218619109D+01 -.835713382245D-08
    -.545379860117D-09  .100000000000D+01  .178800000000D+04  .000000000000D+00
     .340000000000D+01  .000000000000D+00 -.172294676304D-07  .760000000000D+02
     .460806000000D+06  .400000000000D+01
23 14  4 18 10  0  0.0 -.133579596877D-04 -.318323145621D-11  .000000000000D+00
     .270000000000D+02  .108531250000D+03  .464447917549D-08 -.339123250233D+00
     .552274286747D-05  .912875228096D-02  .765174627304D-05  .515356990814D+04
     .468000000000D+06  .104308128357D-06  .115371375372D+01  .912696123123D-07
     .952182763308D+00  .226468750000D+03 -.279421015702D+01 -.830284584686D-08
     .228580949885D-10  .100000000000D+01  .178800000000D+04  .000000000000D+00
     .240000000000D+01  .000000000000D+00 -.200234353542D-07  .270000000000D+02
     .460806000000D+06  .400000000000D+01
24 14  4 18 10  0  0.0 -.268872827291D-04 -.682121026330D-12  .000000000000D+00
     .115000000000D+03 -.546875000000D+01  .482591530446D-08 -.114326364127D+01
    -.262632966042D-06  .206017831806D-02  .983476638794D-06  .515373743439D+04
     .468000000000D+06  .335276126862D-07  .218112598646D+01 -.106170773506D-06
     .956863115155D+00  .360687500000D+03  .325581807549D+00 -.859500087343D-08
    -.135005623526D-09  .100000000000D+01  .178800000000D+04  .000000000000D+00
     .240000000000D+01  .000000000000D+00  .279396772385D-08  .115000000000D+03
     .460806000000D+06  .400000000000D+01
26 14  4 18 10  0  0.0  .105198472738D-03 -.113686837722D-10  .000000000000D+00
     .720000000000D+02  .120875000000D+03  .432125142604D-08 -.450989865950D+00
     .655278563499D-05  .214615338482D-01  .749714672565D-05  .515369429588D+04
     .468000000000D+06 -.145286321640D-06  .124136096627D+01  .255182385445D-06
     .975293338939D+00  .245625000000D+03  .127742190278D+01 -.841963642594D-08
     .183221917643D-09  .100000000000D+01  .178800000000D+04  .000000000000D+00
     .240000000000D+01  .000000000000D+00 -.605359673500D-08  .720000000000D+02
     .460806000000D+06  .400000000000D+01
27 14  4 18 10  0  0.0 -.194353051484D-04  .909494701773D-12  .000000000000D+00
     .136000000000D+03 -.568750000000D+01  .444518515980D-08  .914722307204D+00
    -.316649675369D-06  .110157264862D-02  .982172787189D-05  .515367264175D+04
     .468000000000D+06  .447034835815D-07 -.200055498847D+01 -.130385160446D-07
     .962839270097D+00  .193281250000D+03  .580238894765D-01 -.790675791963D-08
     .573952478853D-09  .100000000000D+01  .178800000000D+04  .000000000000D+00
     .340000000000D+01  .000000000000D+00  .186264514923D-08  .136000000000D+03
     .460806000000D+06  .400000000000D+01
28 14  4 18 10  0  0.0  .348191708326D-03  .295585778076D-11  .000000000000D+00
     .130000000000D+03 -.109468750000D+03  .360622164218D-08  .161097008047D+01
    -.589340925217D-05  .191351786489D-01  .942498445511D-05  .515367447281D+04
     .468000000000D+06 -.800937414169D-07 -.298150066105D+01 -.484287738800D-06
     .986691352090D+00  .213031250000D+03 -.171722145630D+01 -.767531970787D-08
    -.378587198248D-10  .100000000000D+01  .178800000000D+04  .000000000000D+00
     .240000000000D+01  .000000000000D+00 -.107102096081D-07  .130000000000D+03
     .460806000000D+06  .400000000000D+01
29 14  4 18 10  0  0.0  .526276882738D-03  .272848410532D-11  .000000000000D+00
     .750000000000D+02  .275000000000D+01  .425910598029D-08 -.269398207866D+01
     .225380063057D-06  .166135828476D-02  .100843608379D-04  .515372257614D+04
     .468000000000D+06 -.186264514923D-08 -.194622353202D+01  .707805156708D-07
     .968800573495D+00  .185187500000D+03 -.928852707541D+00 -.781675417062D-08
     .726101673621D-09  .100000000000D+01  .178800000000D+04  .000000000000D+00
     .240000000000D+01  .000000000000D+00 -.977888703346D-08  .750000000000D+02
     .460806000000D+06  .400000000000D+01
31 14  4 18 10  0  0.0  .334226060659D-03  .000000000000D+00  .000000000000D+00
     .330000000000D+02 -.443750000000D+01  .439732602342D-08 -.213404182178D+01
    -.191852450371D-06  .804628292099D-02  .167638063431D-05  .515353134918D+04
     .468000000000D+06 -.188127160072D-06  .222112218869D+01  .115483999252D-06
     .978446421867D+00  .359375000000D+03 -.640525387471D+00 -.835427656058D-08
    -.101789954246D-09  .100000000000D+01  .178800000000D+04  .000000000000D+00
     .240000000000D+01  .000000000000D+00 -.130385160446D-07  .330000000000D+02
     .460806000000D+06  .400000000000D+01
32 14  4 18 10  0  0.0 -.447007361799D-03  .773070496507D-11  .000000000000D+00
     .500000000000D+02  .128125000000D+01  .485163066132D-08 -.139437922618D+01
     .113621354103D-06  .114284694428D-01  .109188258648D-04  .515376338577D+04
     .468000000000D+06 -.111758708954D-07  .181897430198D+00 -.184401869774D-06
     .948364750467D+00  .162968750000D+03 -.169199601168D+00 -.813926760459D-08
    -.325727853587D-09  .100000000000D+01  .178800000000D+04  .000000000000D+00
     .240000000000D+01  .000000000000D+00 -.325962901115D-08  .500000000000D+02
     .460806000000D+06  .400000000000D+01
 4 14  4 18  9 59 44.0  .671390444040D-05  .227373675443D-12  .000000000000D+00
     .190000000000D+02 -.102500000000D+02  .559023285564D-08  .263039265780D+01
    -.651925802231D-06  .105608939193D-01  .476650893688D-05  .515371190071D+04
     .467984000000D+06  .167638063431D-07 -.958137192454D+00 -.162050127983D-06
     .938106542143D+00  .276125000000D+03  .109022585791D+01 -.836427697714D-08
    -.196436753808D-10  .100000000000D+01  .178800000000D+04  .000000000000D+00
     .240000000000D+01  .000000000000D+00 -.651925802231D-08  .190000000000D+02
     .460836000000D+06  .400000000000D+01
 4 14  4 18  9 59 44.0  .671390444040D-05  .227373675443D-12  .000000000000D+00
     .190000000000D+02 -.102500000000D+02  .559023285564D-08  .263039265780D+01
    -.651925802231D-06  .105608939193D-01  .476650893688D-05  .515371190071D+04
     .467984000000D+06  .167638063431D-07 -.958137192454D+00 -.162050127983D-06
     .938106542143D+00  .276125000000D+03  .109022585791D+01 -.836427697714D-08
    -.196436753808D-10  .100000000000D+01  .178800000000D+04  .000000000000D+00
     .240000000000D+01  .200000000000D+01 -.651925802231D-08  .787000000000D+03
     .460836000000D+06  .400000000000D+01
12 14  4 18  9 59 44.0  .199358910322D-03  .238742359215D-11  .000000000000D+00
     .200000000000D+02 -.124781250000D+03  .356479134501D-08 -.241089068577D+01
    -.641867518425D-05  .507749093231D-02  .984594225883D-05  .515364958763D+04
     .467984000000D+06 -.149011611938D-07 -.300584109582D+01  .372529029846D-08
     .987563988576D+00  .203281250000D+03  .397326563686D+00 -.762103173228D-08
    -.803604901941D-10  .100000000000D+01  .178800000000D+04  .000000000000D+00
     .240000000000D+01  .000000000000D+00 -.121071934700D-07  .200000000000D+02
     .461376000000D+06  .400000000000D+01
27 14  4 18  9 59 44.0 -.194353051484D-04  .909494701773D-12  .000000000000D+00
     .100000000000D+02 -.568750000000D+01  .444554231754D-08  .912388696857D+00
    -.316649675369D-06  .110157032032D-02  .982172787189D-05  .515367263794D+04
     .467984000000D+06  .447034835815D-07 -.200055486559D+01 -.130385160446D-07
     .962839261320D+00  .193281250000D+03  .580237563509D-01 -.790675791963D-08
     .573952478853D-09  .100000000000D+01  .178800000000D+04  .000000000000D+00
     .240000000000D+01  .000000000000D+00  .186264514923D-08  .100000000000D+02
     .461556000000D+06  .400000000000D+01
 9 14  4 18  9 59 44.0  .321044120938D-03  .284217094304D-11  .000000000000D+00
     .450000000000D+02 -.100625000000D+02  .437053919336D-08 -.920422640646D+00
    -.400468707085D-06  .171200312907D-01  .214390456676D-05  .515367882919D+04
     .467984000000D+06 -.193715095520D-06  .219443690251D+01  .894069671631D-07
     .982033141508D+00  .354406250000D+03  .178960926148D+01 -.850821154402D-08
     .150006248362D-10  .100000000000D+01  .178800000000D+04  .000000000000D+00
     .240000000000D+01  .000000000000D+00 -.605359673500D-08  .450000000000D+02
     .463356000000D+06  .400000000000D+01
